STARLINK-31548          
1 59193U 24045R   26068.14428684 -.00002956  00000+0 -98027-4 0  9994
2 59193  43.0008  95.9930 0001226 264.6986  95.3726 15.27554730113074
2025-155V               
1 64895U 25155V   26068.85787115  .00013705  00000+0  51002-3 0  9990
2 64895  97.4485  37.2490 0008035 152.8264 207.3397 15.27583301 65579
